SITRO-AIS-6 (CHIRKIN)
1 57192U 23091AC  25064.13483102  .00011669  00000-0  59460-3 0  9998
2 57192  97.5725 121.0652 0013627 306.7009  53.2971 15.16857569 92946
SITRO-AIS-8 (SHCHUKIN)
1 57193U 23091AD  25064.12278062  .00012979  00000-0  64066-3 0  9998
2 57193  97.5719 121.3740 0013216 306.4878  53.5138 15.17948313 92965
SITRO-AIS-7 (SHEFFER)
1 57194U 23091AE  25064.15113166  .00012379  00000-0  63159-3 0  9991
2 57194  97.5725 121.0336 0013508 307.4515  52.5489 15.16796354 92945
AVION KALUGA 650
1 57195U 23091AF  25064.14482979  .00007510  00000-0  42237-3 0  9997
2 57195  97.5764 120.8840 0010663 300.2225  59.7950 15.13516393 92913
YARILO 3
1 57198U 23091AJ  25064.15908058  .00148855  00000-0  21839-2 0  9994
2 57198  97.5679 131.0474 0006470 255.0511 105.0027 15.54984227 93577
SITRO-AIS-10 (KATYS)
1 57199U 23091AK  25064.23550928  .00019244  00000-0  87430-3 0  9992
2 57199  97.5731 123.3336 0008899 289.7041  70.3233 15.20776649 93097
SITRO-AIS-9 (BURDAEV)
1 57201U 23091AM  25064.11175339  .00016402  00000-0  74866-3 0  9994
2 57201  97.5727 123.1521 0008917 290.4758  69.5519 15.20650565 93078
UTMN-2 (RS27S)
1 57203U 23091AP  25064.16037645  .00013031  00000-0  62884-3 0  9990
2 57203  97.5740 122.6985 0009542 286.9781  73.0407 15.18774631 93045
SITRO-AIS-12 (FARTUSHNY)
1 57204U 23091AQ  25064.10662037  .00016154  00000-0  73324-3 0  9994
2 57204  97.5736 123.3866 0008833 283.4741  76.5509 15.20846037 93085
ARCCUBE-1 (RS25S)
1 57205U 23091AR  25064.11130143  .00043357  00000-0  13051-2 0  9999
2 57205  97.5627 126.6047 0006839 275.7729  84.2733 15.34207829 93323
AHMAT-1 (RS41S)
1 57206U 23091AS  25064.12727474  .00024426  00000-0  96356-3 0  9996
2 57206  97.5694 124.6165 0007662 286.3238  73.7157 15.25524343 93185
SITRO-AIS-11 (SMIRENNY)
1 57208U 23091AU  25064.13659826  .00015610  00000-0  70543-3 0  9999
2 57208  97.5734 123.4819 0008630 283.7826  76.2449 15.21006935 93095
KUZGTU-1 (RS47S)
1 57217U 23091AV  25064.16847383  .00013365  00000-0  67253-3 0  9998
2 57217  97.5728 121.3644 0013322 301.0070  58.9854 15.17266004 92962
STRATOSAT-TK1-A (RS45S)
1 57322U 23091AW  25064.13936941  .00074776  00000-0  17466-2 0  9994
2 57322  97.5655 127.5478 0008328 276.2902  83.7395 15.41882687 91253
STRATOSAT-TK1-E (RS52SE)
1 57323U 23091AX  25064.14886559  .00028805  00000-0  10958-2 0  9996
2 57323  97.5702 124.0547 0010699 294.2669  65.7451 15.26672242 91025
STRATOSAT-TK1-B (RS52SB)
1 57324U 23091AY  25064.17039963  .00072648  00000-0  17096-2 0  9993
2 57324  97.5659 127.5227 0008460 276.1790  83.8493 15.41666274 91254
STRATOSAT-TK1-D (RS52SD)
1 57326U 23091BA  25064.14652732  .00026932  00000-0  10411-2 0  9996
2 57326  97.5695 123.8776 0010813 294.9587  65.0527 15.26152893 90856
STRATOSAT-TK1-V (RS52SV)
1 57327U 23091BB  25064.14706999  .00074344  00000-0  17396-2 0  9991
2 57327  97.5661 127.5802 0008450 276.0929  83.9355 15.41829909 91097
VERONIKA
1 58261U 23174F   25064.14168251  .00070866  00000-0  13729-2 0  9995
2 58261  97.4234 146.2632 0005986  32.9642 327.1981 15.47443986 73665
ENSO
1 58470U 23185J   25064.12864761  .00048632  00000-0  10719-2 0  9998
2 58470  97.3854 136.9529 0008364  73.7988 286.4180 15.43737762 70090
HAYASAT-1
1 58471U 23185K   25064.18006626  .00160728  00000-0  16793-2 0  9992
2 58471  97.3776 140.1591 0002781  48.8173 311.3325 15.63952115 70313
METEOR M2-4
1 59051U 24039A   25064.13005390  .00000120  00000-0  73419-4 0  9997
2 59051  98.6376  26.1223 0008212  88.0343 272.1776 14.22341521 52583
SITRO-AIS-29
1 59052U 24039B   25064.11765891  .00140228  00000-0  14790-2 0  9994
2 59052  97.4145  35.7708 0008246  35.4128 324.7677 15.63743644 56792
SITRO-AIS-30
1 59053U 24039C   25064.12549481  .00132039  00000-0  14715-2 0  9999
2 59053  97.4139  35.5943 0008649  32.2646 327.9140 15.62349230 56772
SITRO-AIS-31
1 59054U 24039D   25064.18544585  .00155885  00000-0  16691-2 0  9995
2 59054  97.4155  35.8333 0008629  35.5350 324.6482 15.63303338 56811
SITRO-AIS-33
1 59055U 24039E   25064.15523487  .00143950  00000-0  15302-2 0  9999
2 59055  97.4145  35.8784 0008169  35.5332 324.6469 15.63531670 56806
SITRO-AIS-35
1 59056U 24039F   25064.20598225  .00163668  00000-0  17169-2 0  9999
2 59056  97.4154  35.9656 0008423  39.0751 321.1114 15.63805181 56814
SITRO-AIS-32
1 59057U 24039G   25064.20499999  .00148536  00000-0  16258-2 0  9993
2 59057  97.4156  35.8230 0008532  35.8272 324.3557 15.62761749 56802
SITRO-AIS-34
1 59058U 24039H   25064.15640843  .00138700  00000-0  14800-2 0  9997
2 59058  97.4149  35.8808 0008199  36.2643 323.9169 15.63451098 56800
SITRO-AIS-36
1 59059U 24039J   25064.19897171  .00159566  00000-0  17019-2 0  9998
2 59059  97.4135  35.9614 0007910  38.1665 322.0152 15.63397989 56818
SITRO-AIS-49
1 59060U 24039K   25064.17741678  .00150662  00000-0  16535-2 0  9998
2 59060  97.4143  35.8482 0008366  35.6249 324.5566 15.62687441 56806
SITRO-AIS-50
1 59062U 24039M   25064.11880069  .00150232  00000-0  15181-2 0  9991
2 59062  97.4132  36.0647 0007625  38.9989 321.1819 15.64807792 56816
SITRO-AIS-51
1 59061U 24039L   25064.19755543  .00169820  00000-0  17311-2 0  9996
2 59061  97.4129  36.1120 0007707  38.3183 321.8622 15.64523192 56828
SITRO-AIS-52
1 59063U 24039N   25064.22330835  .00162761  00000-0  16263-2 0  9997
2 59063  97.4143  36.2452 0007870  41.1049 319.0802 15.65050882 56831
ZORKIY-2M 2
1 59064U 24039P   25064.16969306  .00048951  00000-0  98643-3 0  9999
2 59064  97.4229  33.6249 0011686  21.6383 338.5357 15.46341476 56669
PARS-1
1 59065U 24039Q   25064.18358802  .00016063  00000-0  49192-3 0  9999
2 59065  97.4299  31.3395 0012530  14.7917 345.3689 15.33816423 56477
SITRO-AIS-25
1 59066U 24039R   25064.19814601  .00009155  00000-0  79276-3 0  9995
2 59066  95.3805 274.4760 0159525 161.0290 199.6970 14.87854147 54856
SITRO-AIS-26
1 59067U 24039S   25064.21457405  .00008062  00000-0  70085-3 0  9999
2 59067  95.3807 274.4609 0159696 161.1399 199.5834 14.87712656 54857
SITRO-AIS-27
1 59068U 24039T   25064.23015206  .00007552  00000-0  65270-3 0  9994
2 59068  95.3807 274.5620 0158996 160.6157 200.1208 14.88017282 54869
SITRO-AIS-28
1 59071U 24039U   25064.21985287  .00007883  00000-0  68066-3 0  9994
2 59071  95.3809 274.5756 0158874 160.5703 200.1671 14.88059773 54861
SONATE-2
1 59112U 24043Q   25063.93067708  .00021862  00000-0  73247-3 0  9992
2 59112  97.4987 193.5728 0012198  98.9742 261.2880 15.30874973 55520
HORS-1
1 57188U 23091Y   25064.13829465  .00010393  00000-0  53535-3 0  9999
2 57188  97.5732 121.7250 0009875 292.7387  67.2802 15.16546280 92980
HORS-2
1 57196U 23091AG  25064.12762701  .00012393  00000-0  60138-3 0  9995
2 57196  97.5743 122.6117 0009630 291.3711  68.6495 15.18591975 93031
ZORKIY-2M 6
1 59774U 24092B   25064.14863401  .00012835  00000-0  64643-3 0  9998
2 59774  97.6016 181.0414 0011229  20.9574 339.2117 15.17267684 44140
ZORKIY-2M 4
1 59775U 24092C   25064.22904239  .00014397  00000-0  71620-3 0  9991
2 59775  97.6146 181.7372 0011293  24.2482 335.9280 15.17672108 44179
SITRO-AIS-53
1 59776U 24092D   25063.83621486  .00017129  00000-0  82833-3 0  9992
2 59776  97.6099 181.0011 0010242   0.1374 359.9860 15.18631797 44109
SITRO-AIS-54
1 59777U 24092E   25063.89932534  .00016265  00000-0  78666-3 0  9997
2 59777  97.6097 181.0667 0010552   0.5473 359.5770 15.18634016 44117
SITRO-AIS-56
1 59778U 24092F   25063.75045544  .00017690  00000-0  85077-3 0  9996
2 59778  97.6089 180.9411 0010701   0.9920 359.1333 15.18810593 44095
RASSVET 1-4
1 59779U 24092G   25064.14437088  .00000448  00000-0  18514-3 0  9994
2 59779  98.6235 179.9930 0012994 146.0822 214.1195 14.31513516 41781
RASSVET 1-5
1 59780U 24092H   25064.21369033  .00000494  00000-0  20230-3 0  9997
2 59780  98.6235 180.0604 0013190 146.5317 213.6703 14.31513182 41796
RASSVET 1-6
1 59781U 24092J   25064.21269185  .00000498  00000-0  20385-3 0  9990
2 59781  98.6235 180.0624 0012967 146.0896 214.1118 14.31513896 41795
SITRO-AIS-55
1 59809U 24092K   25063.85143859  .00017236  00000-0  83613-3 0  9990
2 59809  97.6092 180.9571 0010722   0.4413 359.6828 15.18514969 43604
MESAT-1
1 60209U 24125G   25063.63687022  .00022460  00000-0  74204-3 0  9995
2 60209  97.2926 276.5670 0021838 122.7175 237.6176 15.31155137 37097
ISTSAT-1
1 60238U 24128D   25064.12478635  .00011014  00000-0  81153-3 0  9997
2 60238  61.9922  54.3307 0042636  35.8396 324.5542 15.03044534 35740
IONOSFERA-M 01
1 61735U 24199A   25064.17272359  .00000123  00000-0  74871-4 0  9997
2 61735  98.7846 295.5812 0002026  70.6049 289.5348 14.22636757 61014
IONOSFERA-M 02
1 61736U 24199B   25064.13730756  .00000111  00000-0  69767-4 0  9999
2 61736  98.7844 295.4625 0000485 136.6703 223.4513 14.22637007 64137
SITRO-AIS-16
1 61737U 24199C   25064.12006431  .00004077  00000-0  38751-3 0  9998
2 61737  97.3730 287.5489 0006359 197.6339 162.4662 14.93963090 61692
SITRO-AIS-15
1 61738U 24199D   25064.11443357  .00003886  00000-0  36910-3 0  9992
2 61738  97.3732 287.5559 0006119 196.8632 163.2386 14.94017883 61697
SITRO-AIS-21
1 61739U 24199E   25064.10393952  .00004736  00000-0  46640-3 0  9993
2 61739  97.3727 287.2734 0012832 193.6567 166.4308 14.92433509 61712
SITRO-AIS-22
1 61740U 24199F   25064.10222047  .00005099  00000-0  50123-3 0  9995
2 61740  97.3729 287.2798 0012887 194.9302 165.1539 14.92475001 61868
SITRO-AIS-24
1 61741U 24199G   25064.10124245  .00004977  00000-0  48983-3 0  9992
2 61741  97.3730 287.2826 0012795 196.4062 163.6746 14.92443338 61839
SITRO-AIS-23
1 61742U 24199H   25064.16545268  .00004997  00000-0  49089-3 0  9991
2 61742  97.3728 287.3475 0012703 195.6707 164.4122 14.92511599 61724
SITRO-AIS-13
1 61743U 24199J   25064.17149860  .00006192  00000-0  58273-3 0  9995
2 61743  97.3730 287.6311 0005934 196.9786 163.1237 14.94180951 61863
